SL-14 R/B               
1 21423U 91042B   26027.36392118  .00000641  00000+0  78056-4 0  9998
2 21423  82.4910 258.9440 0017624  21.7696 338.4263 14.81789744846955
ERS-1                   
1 21574U 91050A   26027.75496165  .00000614  00000+0  21119-3 0  9991
2 21574  98.7897  44.9606 0031337 325.3766  34.5380 14.39412462809845
ARIANE 40 R/B           
1 21610U 91050F   26027.62582211  .00000572  00000+0  18379-3 0  9993
2 21610  98.2098  81.3864 0003097 176.4329 183.6884 14.42860658813070
INTERCOSMOS 25          
1 21819U 91086A   26027.87108307  .00001801  00000+0  35446-3 0  9990
2 21819  82.6092 334.6751 1486270 204.8891 147.2822 12.11888113491744
SL-8 R/B                
1 21876U 92008B   26027.70251446  .00000084  00000+0  70948-4 0  9992
2 21876  82.9283 298.2661 0033369 248.6605 138.3604 13.75968568703785
SL-8 R/B                
1 21938U 92020B   26027.90618990  .00000182  00000+0  17296-3 0  9993
2 21938  82.9311 184.0343 0029938  53.3374 110.5600 13.75542351695524
USA 81                  
1 21949U 92023A   26027.79181131  .00000373  00000+0  13096-3 0  9993
2 21949  85.0115 155.0208 0002261 112.5388 247.6044 14.32350991 88939
COSMOS 2219             
1 22219U 92076A   26027.63411769 -.00000208  00000+0 -84445-4 0  9994
2 22219  71.0607 103.8986 0020768 264.0753  95.8002 14.14080207712577
SL-16 R/B               
1 22220U 92076B   26027.67195778 -.00000022  00000+0  13080-4 0  9999
2 22220  70.9991 274.7785 0012249 167.7919 222.3938 14.16850371716024
COSMOS 2221             
1 22236U 92080A   26027.77275946  .00003417  00000+0  30188-3 0  9995
2 22236  82.5063 318.2618 0013840 337.2879  22.7728 14.96017110774674
SL-16 R/B               
1 22285U 92093B   26027.60939817 -.00000055  00000+0 -37178-5 0  9994
2 22285  71.0218  90.5081 0004662 337.6636  22.4284 14.15443674707347
COSMOS 2228             
1 22286U 92094A   26027.88267179  .00003234  00000+0  27790-3 0  9998
2 22286  82.5176 276.3830 0019621  79.7350 280.6083 14.96994491769959
